EUTELSAT 9B             
1 41310U 16005A   26175.17225997  .00000070  00000+0  00000+0 0  9999
2 41310   0.0399  59.7531 0001461  16.8065 266.8045  1.00276926 38184
SES-9                   
1 41380U 16013A   26175.03864247 -.00000338  00000+0  00000+0 0  9995
2 41380   0.0127 332.4630 0002404 110.6232 311.3192  1.00270318 37501
EUTELSAT 65 WEST A      
1 41382U 16014A   26176.15947412 -.00000267  00000+0  00000+0 0  9999
2 41382   0.0468 351.0002 0002695  99.7969 174.7219  1.00272219 37601
IRNSS-1F                
1 41384U 16015A   26175.96109119  .00000163  00000+0  00000+0 0  9998
2 41384   5.3679  96.6056 0017450 184.5508  10.3459  1.00271475 37742
BEIDOU-2 IGSO-6         
1 41434U 16021A   26175.09191728 -.00000155  00000+0  00000+0 0  9994
2 41434  60.2358  37.9691 0057538 231.1257 128.7042  1.00259092 37558
IRNSS-1G                
1 41469U 16027A   26174.84712422 -.00000331  00000+0  00000+0 0  9996
2 41469   5.2122  97.3232 0006290   2.5927 246.3008  1.00277897 37246
JCSAT-2B                
1 41471U 16028A   26174.99975167 -.00000159  00000+0  00000+0 0  9991
2 41471   0.0193  11.2610 0001105  81.5887 333.2159  1.00271214 37191
THAICOM 8               
1 41552U 16031A   26176.18408741 -.00000112  00000+0  00000+0 0  9996
2 41552   0.0690  45.9058 0003822  18.7627 353.4149  1.00272265 36790
INTELSAT 31 (IS-31)     
1 41581U 16035A   26176.14967492 -.00000141  00000+0  00000+0 0  9993
2 41581   0.0127 292.2322 0000679 327.6488 332.2376  1.00270780 36766
BEIDOU-2 G7             
1 41586U 16037A   26175.97651794 -.00000345  00000+0  00000+0 0  9991
2 41586   1.7400  69.4037 0006796   0.1977 305.6117  1.00273184  6969
ABS-2A (MONGOLSAT-1)    
1 41588U 16038A   26175.11397954  .00000000  00000+0  00000+0 0  9992
2 41588   0.0206   1.7575 0002281  27.4153 358.8874  1.00270200 36774
EUTELSAT 117 WEST B     
1 41589U 16038B   26174.93344307 -.00000005  00000+0  00000+0 0  9992
2 41589   0.0091 158.0636 0000063  73.8469 259.2281  1.00270429 36737
BRISAT                  
1 41591U 16039A   26175.22128028  .00000000  00000+0  00000+0 0  9993
2 41591   0.0209 343.6559 0002149 100.3988  58.4713  1.00267771 36685
ECHOSTAR 18             
1 41592U 16039B   26175.16331442 -.00000275  00000+0  00000+0 0  9998
2 41592   0.0186  13.0400 0001652  80.3658 176.3306  1.00273094 36696
MUOS-5                  
1 41622U 16041A   26176.14785492 -.00000139  00000+0  00000+0 0  9991
2 41622   2.1858 301.8198 0197920 260.6421  18.8596  1.00272999 37163
TIANTONG-1 1            
1 41725U 16048A   26176.11730664 -.00000311  00000+0  00000+0 0  9992
2 41725   3.8646  43.4890 0005872  47.6013 325.8276  1.00271889 36355
JCSAT-16                
1 41729U 16050A   26174.91377836 -.00000244  00000+0  00000+0 0  9998
2 41729   0.0185   4.4807 0001177  97.4298 283.0721  1.00271683 36131
USA 270                 
1 41744U 16052A   26173.63364372 -.00000244  00000+0  00000+0 0  9996
2 41744   4.2102  77.1345 0000555 163.5272  57.8891  0.99500873 28187
USA 271                 
1 41745U 16052B   26174.05095881 -.00000272  00000+0  00000+0 0  9991
2 41745   4.1840  77.1777 0002049 291.6696  27.7147  0.99834520 27973
INTELSAT 36 (IS-36)     
1 41747U 16053A   26176.18209405 -.00000015  00000+0  00000+0 0  9994
2 41747   0.0128  20.9268 0002042 321.7510  64.7168  1.00272521 36034
INSAT-3DR               
1 41752U 16054A   26176.03289008 -.00000068  00000+0  00000+0 0  9990
2 41752   0.1260  86.2772 0010125 187.2361  85.4719  1.00272289 35899
GSAT-18                 
1 41793U 16060A   26176.03289008 -.00000068  00000+0  00000+0 0  9992
2 41793   0.0779  94.2117 0005787 342.7973 281.9801  1.00272069 35605
SKY MUSTER 2 (NBN1B)    
1 41794U 16060B   26175.16919581 -.00000237  00000+0  00000+0 0  9990
2 41794   0.0187 332.8218 0001685 118.2672  26.9549  1.00272128 35597
HIMAWARI-9              
1 41836U 16064A   26175.91124344  .00000000  00000+0  00000+0 0  9996
2 41836   0.0218  27.4399 0001195  85.6207 268.8113  1.00269384 35283
SHIJIAN-17 (SJ-17)      
1 41838U 16065A   26171.45724087  .00000087  00000+0  00000+0 0  9999
2 41838   5.7621  72.5678 0001949  27.4113 204.1763  0.99855834 35230
GOES 16                 
1 41866U 16071A   26176.14776824 -.00000082  00000+0  00000+0 0  9990
2 41866   0.3618  85.5326 0000527   2.1377 134.1199  1.00272015 35181
TIANLIAN 1-04           
1 41869U 16072A   26175.20546162  .00000038  00000+0  00000+0 0  9990
2 41869   0.8858  82.9424 0043256  90.2345 349.9372  1.00272983 35378
WGS F8 (USA 272)        
1 41879U 16075A   26175.91306345 -.00000193  00000+0  00000+0 0  9992
2 41879   0.0144  91.7378 0000089  71.5098 228.3405  1.00271006 34897
FENGYUN 4A              
1 41882U 16077A   26175.97911795 -.00000350  00000+0  00000+0 0  9990
2 41882   2.3433  80.2064 0008304 152.5076 156.5206  1.00265220 35002
ECHOSTAR 19             
1 41893U 16079A   26175.01364089 -.00000132  00000+0  00000+0 0  9995
2 41893   0.0189  18.2068 0001422  72.4413  89.3327  1.00272559 34774
JCSAT-110A (JCSAT-15)   
1 41903U 16082A   26175.20114447 -.00000344  00000+0  00000+0 0  9998
2 41903   0.0188   4.9184 0000766  96.7190 353.1972  1.00272361 34833
STAR ONE D1             
1 41904U 16082B   26176.15184160 -.00000201  00000+0  00000+0 0  9995
2 41904   0.0181  47.0753 0002282  61.5949 135.2892  1.00272216 34855
TJS-2                   
1 41911U 17001A   26176.03289008  .00000002  00000+0  00000+0 0  9997
2 41911   0.8539  85.2425 0000683  44.8516 221.4560  1.00271870 34793
SBIRS GEO-4 (USA 273)   
1 41937U 17004A   26176.17264735  .00000131  00000+0  00000+0 0  9996
2 41937   2.2584  43.5041 0002327  41.2914 271.5676  1.00272953 34672
HISPASAT 36W-1          
1 41942U 17006A   26176.16138064 -.00000235  00000+0  00000+0 0  9994
2 41942   0.0062 273.6647 0000949 180.6986 201.0437  1.00272134 34324
TELKOM 3S               
1 41944U 17007A   26175.97799127 -.00000353  00000+0  00000+0 0  9999
2 41944   0.0184  34.0376 0002487  63.4268 285.7293  1.00270115 34213
INTELSAT 32E (IS-32E)   
1 41945U 17007B   26176.15999396  .00000000  00000+0  00000+0 0  9999
2 41945   0.0263  12.3082 0000328 342.9005 292.5044  1.00267463 34303
ECHOSTAR 23             
1 42070U 17014A   26175.19477375  .00000000  00000+0  00000+0 0  9998
2 42070   0.0252  12.8786 0002173  78.6615 141.0289  1.00270099 33999
WGS F9 (USA 275)        
1 42075U 17016A   26175.95228668 -.00000087  00000+0  00000+0 0  9994
2 42075   0.0190 339.1005 0000292  91.2201 173.5920  1.00271350 33977
SES-10                  
1 42432U 17017A   26175.12657262 -.00000265  00000+0  00000+0 0  9995
2 42432   0.0218  41.8473 0002915  54.1049 154.9947  1.00269700 33825
CHINASAT 16 (SJ-13)     
1 42662U 17018A   26175.47740242 -.00000344  00000+0  00000+0 0  9998
2 42662   0.0980  89.8819 0004089 126.4029 338.7302  1.00269044 33825
KOREASAT 7              
1 42691U 17023A   26176.04891426 -.00000352  00000+0  00000+0 0  9990
2 42691   0.0186   7.3266 0000537  60.2750 339.1084  1.00271026 33449
SGDC                    
1 42692U 17023B   26175.45076142 -.00000242  00000+0  00000+0 0  9993
2 42692   0.0173  51.4333 0002785  47.1135 261.4792  1.00272284 33483
GSAT-9                  
1 42695U 17024A   26175.13532341 -.00000278  00000+0  00000+0 0  9999
2 42695   0.0293  83.4380 0002463   6.0146 328.7950  1.00266413 33362
INMARSAT 5-F4           
1 42698U 17025A   26174.98377984  .00000082  00000+0  00000+0 0  9997
2 42698   0.0032  91.0109 0000398 309.4233 282.3621  1.00270664 33343
SES-15                  
1 42709U 17026A   26175.21616350  .00000068  00000+0  00000+0 0  9995
2 42709   0.0192 334.4613 0000615  97.6725 148.8943  1.00268468  7502
QZS-2 (MICHIBIKI-2)     
1 42738U 17028A   26174.49055875 -.00000168  00000+0  00000+0 0  9999
2 42738  39.4179 243.0621 0759390 269.3295  77.7964  1.00282240  7686
VIASAT-2                
1 42740U 17029A   26175.22767060 -.00000258  00000+0  00000+0 0  9991
2 42740   0.0153 301.1892 0000353 112.3888 230.8800  1.00272341 33270
EUTELSAT 172B           
1 42741U 17029B   26176.13124898  .00000004  00000+0  00000+0 0  9997
2 42741   0.0411 147.2955 0000238 283.4962  61.7342  1.00271091 33826
GSAT-19                 
1 42747U 17031A   26176.17802072  .00000135  00000+0  00000+0 0  9992
2 42747   0.0131 291.1292 0007140 144.3422 309.7838  1.00271442 33228
ECHOSTAR 21             
1 42749U 17032A   26176.17056734  .00000074  00000+0  00000+0 0  9993
2 42749   1.7703 356.2515 0002563  85.7447 262.9753  1.00272724 33177
BULGARIASAT-1           
1 42801U 17038A   26175.17078663  .00000019  00000+0  00000+0 0  9991
2 42801   0.0264  73.5165 0003644  25.8217 236.3643  1.00275251 32913
HELLAS-SAT 3            
1 42814U 17040A   26176.17620071  .00000162  00000+0  00000+0 0  9994
2 42814   0.0387  32.0200 0004849  27.7836 315.9844  1.00276173 32886
GSAT-17                 
1 42815U 17040B   26175.97313793 -.00000249  00000+0  00000+0 0  9999
2 42815   0.0262  84.3594 0001507 210.3390  62.2435  1.00273175 32863
INTELSAT 35E (IS-35E)   
1 42818U 17041A   26176.17307280  .00000000  00000+0  00000+0 0  9994
2 42818   0.0243   8.0577 0002379  86.9446 206.1333  1.00269597 32898
COSMOS 2520             
1 42907U 17046A   26173.53967391  .00000139  00000+0  00000+0 0  9993
2 42907   0.0442  96.2036 0000779  74.8601 338.9459  1.00273541 32457
TDRS 13                 
1 42915U 17047A   26176.16623398 -.00000093  00000+0  00000+0 0  9991
2 42915   3.4535   2.9450 0014987 106.9114 211.8655  1.00272572 32429
QZS-3 (MICHIBIKI-3)     
1 42917U 17048A   26176.05108094 -.00000338  00000+0  00000+0 0  9995
2 42917   0.0645 151.5409 0002225 298.1375 328.9488  1.00272879 32330
AMAZONAS 5              
1 42934U 17053A   26175.01579412 -.00000275  00000+0  00000+0 0  9991
2 42934   0.0291 328.4439 0001951  87.3334 161.0747  1.00268513 32112
